INTELSAT 34             
1 40874C 15039A   21252.00000000 -.00000195  00000-0  00000-0 0  2521
2 40874   0.0597 291.0402 0001287 105.5925 256.1582  1.00269641    18
INTELSAT 34         [PM]
1 40874C 15039A   21252.30396991 -.00000195  00000-0  00000-0 0  2521
2 40874   0.0561 279.4123 0001204 109.6040  13.4967  1.00272497    15
INTELSAT 34             
1 40874C 15039A   21255.93456019 -.00000195  00000-0  00000-0 0  2554
2 40874   0.0521 291.1592 0000972 129.0880 212.8537  1.00270223    14
INTELSAT 31             
1 41581C 16035A   21252.00000000 -.00000061  00000-0  00000-0 0  2526
2 41581   0.0288 236.5184 0000926 343.5318  33.1806  1.00270033    10
INTELSAT 31         [PM]
1 41581C 16035A   21252.43055556 -.00000061  00000-0  00000-0 0  2529
2 41581   0.0226 224.2689 0001265 341.2083 203.1772  1.00272084    16
INTELSAT 31             
1 41581C 16035A   21256.00000000 -.00000061  00000-0  00000-0 0  2564
2 41581   0.0210 234.3953 0001445 331.2980  51.4752  1.00270189    16
INTELSAT 36             
1 41747C 16053A   21252.00000000 -.00000004  00000-0  00000-0 0  2527
2 41747   0.0001 215.1178 0003166 165.9231  35.7363  1.00270581    16
INTELSAT 36         [PM]
1 41747C 16053A   21253.08454861  .00000065  00000-0  00000-0 0  2531
2 41747   0.0001 222.4337 0003086 147.6094  78.2370  1.00272778    19
INTELSAT 36             
1 41747C 16053A   21256.00000000 -.00003449  00000-0  00000-0 0  2561
2 41747   0.0001  94.8390 0003163 291.8739  34.0057  1.00271075    14
INTELSAT 33E            
1 41748C 16053B   21252.00000000  .00000139  00000-0  00000-0 0  2526
2 41748   0.0179  44.3518 0001873 111.7215 252.2137  1.00269754    12
INTELSAT 33E            
1 41748C 16053B   21255.94657407  .00000139  00000-0  00000-0 0  2554
2 41748   0.0045  43.3178 0002092 115.1115 234.4918  1.00271348    17
INTELSAT 33E        [PM]
1 41748C 16053B   21261.65277778  .00000107  00000-0  00000-0 0  2610
2 41748   0.0273 308.3275 0002225 223.2026 121.2465  1.00271867    18
INTELSAT 32E            
1 41945C 17007B   21252.00000000 -.00000190  00000-0  00000-0 0  2523
2 41945   0.0001 157.2629 0000450 261.4902 246.3368  1.00269963    10
INTELSAT 32E            
1 41945C 17007B   21255.94657407 -.00000178  00000-0  00000-0 0  2557
2 41945   0.0000 167.0903 0000799 271.2988 211.3705  1.00270585    11
INTELSAT 32E        [PM]
1 41945C 17007B   21258.02719907 -.00000056  00000-0  00000-0 0  2581
2 41945   0.0041 130.9295 0000584 320.7574 229.1256  1.00273456    10
INTELSAT 35E            
1 42818C 17041A   21252.00000000 -.00000148  00000-0  00000-0 0  2524
2 42818   0.0191 207.2364 0001703 328.4347 138.0930  1.00272585    17
INTELSAT 35E            
1 42818C 17041A   21255.94657407 -.00000148  00000-0  00000-0 0  2552
2 42818   0.0191 218.8247 0001840 318.8624 120.7378  1.00272665    11
INTELSAT 35E        [PM]
1 42818C 17041A   21261.41635417 -.00000148  00000-0  00000-0 0  2615
2 42818   0.0247 216.8172 0002049 333.1420 282.9772  1.00271502    12
INTELSAT 37E            
1 42950C 17059A   21252.00000000 -.00000044  00000-0  00000-0 0  2525
2 42950   0.0023 186.6865 0002631 341.6516 161.9285  1.00272200    12
INTELSAT 37E            
1 42950C 17059A   21255.94657407 -.00003028  00000-0  00000-0 0  2558
2 42950   0.0040 207.5602 0002845 321.9631 145.4038  1.00272357    15
INTELSAT 37E        [PM]
1 42950C 17059A   21257.37847222 -.00000024  00000-0  00000-0 0  2578
2 42950   0.0004 168.5412 0002874   1.8709 301.4110  1.00271766    10
INTELSAT 37E        [PM]
1 42950C 17059A   21262.86736111 -.00000048  00000-0  00000-0 0  2624
2 42950   0.0067 202.1529 0003070 339.4118 111.6693  1.00271245    15
AZERSPACE 2         [PM]
1 43632C 18074A   21242.56250000  .00000227  00000-0  00000-0 0  2429
2 43632   0.0013 134.7240 0001298  37.6958  54.1545  1.00271018    18
AZERSPACE 2             
1 43632C 18074A   21252.00000000  .00000230  00000-0  00000-0 0  2527
2 43632   0.0021 149.5084 0001426  17.4850 226.3990  1.00270879    18
AZERSPACE 2             
1 43632C 18074A   21256.00000000  .00000219  00000-0  00000-0 0  2562
2 43632   0.0001 144.3178 0001537  15.0360 237.9753  1.00270190    17
HORIZONS 3E             
1 43633C 18074B   21252.00000000  .00000126  00000-0  00000-0 0  2522
2 43633   0.0291 279.3287 0000506  43.4429 194.5028  1.00270933    13
HORIZONS 3E             
1 43633C 18074B   21256.00000000  .00000059  00000-0  00000-0 0  2565
2 43633   0.0111 327.4461 0000372 333.3588 220.4043  1.00270493    18
INTELSAT 39             
1 44476C 19049B   21252.00000000  .00000098  00000-0  00000-0 0  2529
2 44476   0.0074 211.8524 0001015 168.5399  29.8256  1.00270490    15
INTELSAT 39             
1 44476C 19049B   21256.00000000 -.00003839  00000-0  00000-0 0  2564
2 44476   0.0025 209.8620 0001044 189.3698  14.9258  1.00271044    13
INTELSAT 39         [PM]
1 44476C 19049B   21260.09754630  .00000126  00000-0  00000-0 0  2603
2 44476   0.0014 180.9092 0000817 219.6653  52.7317  1.00271587    16
GALAXY 30               
1 46114C 20056C   21252.00000000  .00000127  00000-0  00000-0 0  2523
2 46114   0.0145 224.0448 0002088 300.1511  59.0778  1.00270081    17
GALAXY 30               
1 46114C 20056C   21255.94657407  .00000129  00000-0  00000-0 0  2553
2 46114   0.0001 154.4891 0002298  12.5729  40.8530  1.00271353    11
GALAXY 30           [PM]
1 46114C 20056C   21258.64583333  .00000128  00000-0  00000-0 0  2581
2 46114   0.0067 201.0265 0002575 330.3296 290.9555  1.00271581    13
